[{"OBJECT_NAME":"STARLINK-32367","OBJECT_ID":"2024-154S","EPOCH":"2026-03-09T21:53:19.185504","MEAN_MOTION":15.30180811,"ECCENTRICITY":0.00010392,"INCLINATION":53.1602,"RA_OF_ASC_NODE":282.4782,"ARG_OF_PERICENTER":112.3854,"MEAN_ANOMALY":247.7257,"EPHEMERIS_TYPE":0,"CLASSIFICATION_TYPE":"U","NORAD_CAT_ID":60919,"ELEMENT_SET_NO":999,"REV_AT_EPOCH":8637,"BSTAR":-9.944849e-6,"MEAN_MOTION_DOT":-6.53e-6,"MEAN_MOTION_DDOT":0},{"OBJECT_NAME":"TEVEL2-2","OBJECT_ID":"2025-052K","EPOCH":"2026-03-09T15:33:48.895776","MEAN_MOTION":15.30343745,"ECCENTRICITY":0.0004693,"INCLINATION":97.3987,"RA_OF_ASC_NODE":324.77,"ARG_OF_PERICENTER":105.793,"MEAN_ANOMALY":254.3828,"EPHEMERIS_TYPE":0,"CLASSIFICATION_TYPE":"U","NORAD_CAT_ID":63219,"ELEMENT_SET_NO":999,"REV_AT_EPOCH":5485,"BSTAR":0.00069428,"MEAN_MOTION_DOT":0.00020339,"MEAN_MOTION_DDOT":0}]
